[{"OBJECT_NAME":"STARLINK-30364","OBJECT_ID":"2023-131K","EPOCH":"2026-03-09T22:00:01.999584","MEAN_MOTION":15.13370424,"ECCENTRICITY":0.00014253,"INCLINATION":42.9989,"RA_OF_ASC_NODE":170.2642,"ARG_OF_PERICENTER":274.0474,"MEAN_ANOMALY":17.4063,"EPHEMERIS_TYPE":0,"CLASSIFICATION_TYPE":"U","NORAD_CAT_ID":57741,"ELEMENT_SET_NO":999,"REV_AT_EPOCH":557,"BSTAR":0.070301336,"MEAN_MOTION_DOT":0.01392179,"MEAN_MOTION_DDOT":0},{"OBJECT_NAME":"OBJECT C","OBJECT_ID":"2024-203C","EPOCH":"2026-03-08T19:37:32.628864","MEAN_MOTION":15.23715458,"ECCENTRICITY":0.00114765,"INCLINATION":97.4332,"RA_OF_ASC_NODE":137.9023,"ARG_OF_PERICENTER":346.2559,"MEAN_ANOMALY":13.8364,"EPHEMERIS_TYPE":0,"CLASSIFICATION_TYPE":"U","NORAD_CAT_ID":61871,"ELEMENT_SET_NO":999,"REV_AT_EPOCH":7357,"BSTAR":0.00073309113,"MEAN_MOTION_DOT":0.00017593,"MEAN_MOTION_DDOT":0}]
